{
  "type": "FeatureCollection",
  "features": [
    {
      "type": "Feature",
      "properties": {
        "OBJECT_NAME": "LVM3 R/B",
        "OBJECT_ID": "2025-249A",
        "EPOCH": "2025-11-30T01:39:41.510880",
        "MEAN_MOTION": 3.14154353,
        "ECCENTRICITY": 0.6669483,
        "INCLINATION": 21.3469,
        "RA_OF_ASC_NODE": 144.7332,
        "ARG_OF_PERICENTER": 206.7231,
        "MEAN_ANOMALY": 92.3964,
        "EPHEMERIS_TYPE": 0,
        "CLASSIFICATION_TYPE": "U",
        "NORAD_CAT_ID": 66310,
        "ELEMENT_SET_NO": 999,
        "REV_AT_EPOCH": 88,
        "BSTAR": 0.0013035,
        "MEAN_MOTION_DOT": 0.00047337,
        "MEAN_MOTION_DDOT": 2.763e-07,
        "norad_id": 66310,
        "name": "LVM3 R/B",
        "group": "last-30-days",
        "longitude_deg": NaN,
        "latitude_deg": NaN,
        "alt_km": NaN,
        "orbit_class": "HEO",
        "timestamp": "2025-11-30T09:33:02.498025+00:00"
      },
      "geometry": {
        "type": "Point",
        "coordinates": [
          NaN,
          NaN
        ]
      }
    },
    {
      "type": "Feature",
      "properties": {
        "OBJECT_NAME": "ELECTRON R/B",
        "OBJECT_ID": "2025-252B",
        "EPOCH": "2025-11-29T21:07:58.211040",
        "MEAN_MOTION": 15.94243293,
        "ECCENTRICITY": 0.0124669,
        "INCLINATION": 41.9889,
        "RA_OF_ASC_NODE": 130.1303,
        "ARG_OF_PERICENTER": 46.1701,
        "MEAN_ANOMALY": 314.9386,
        "EPHEMERIS_TYPE": 0,
        "CLASSIFICATION_TYPE": "U",
        "NORAD_CAT_ID": 66317,
        "ELEMENT_SET_NO": 999,
        "REV_AT_EPOCH": 378,
        "BSTAR": 0.0019143,
        "MEAN_MOTION_DOT": 0.01669799,
        "MEAN_MOTION_DDOT": 7.911e-06,
        "norad_id": 66317,
        "name": "ELECTRON R/B",
        "group": "last-30-days",
        "longitude_deg": NaN,
        "latitude_deg": NaN,
        "alt_km": NaN,
        "orbit_class": "HEO",
        "timestamp": "2025-11-30T09:33:02.498067+00:00"
      },
      "geometry": {
        "type": "Point",
        "coordinates": [
          NaN,
          NaN
        ]
      }
    },
    {
      "type": "Feature",
      "properties": {
        "OBJECT_NAME": "ELECTRON KICK STAGE R/B",
        "OBJECT_ID": "2025-252C",
        "EPOCH": "2025-11-29T21:10:35.967936",
        "MEAN_MOTION": 16.27204594,
        "ECCENTRICITY": 0.0048366,
        "INCLINATION": 41.9678,
        "RA_OF_ASC_NODE": 128.3366,
        "ARG_OF_PERICENTER": 209.2072,
        "MEAN_ANOMALY": 150.6092,
        "EPHEMERIS_TYPE": 0,
        "CLASSIFICATION_TYPE": "U",
        "NORAD_CAT_ID": 66318,
        "ELEMENT_SET_NO": 999,
        "REV_AT_EPOCH": 380,
        "BSTAR": 0.0014467,
        "MEAN_MOTION_DOT": 0.07609678,
        "MEAN_MOTION_DDOT": 7.8949e-06,
        "norad_id": 66318,
        "name": "ELECTRON KICK STAGE R/B",
        "group": "last-30-days",
        "longitude_deg": NaN,
        "latitude_deg": NaN,
        "alt_km": NaN,
        "orbit_class": "HEO",
        "timestamp": "2025-11-30T09:33:02.498074+00:00"
      },
      "geometry": {
        "type": "Point",
        "coordinates": [
          NaN,
          NaN
        ]
      }
    },
    {
      "type": "Feature",
      "properties": {
        "OBJECT_NAME": "CZ-11 DEB",
        "OBJECT_ID": "2025-255B",
        "EPOCH": "2025-11-30T02:37:03.334368",
        "MEAN_MOTION": 15.4323529,
        "ECCENTRICITY": 0.0013993,
        "INCLINATION": 52.9962,
        "RA_OF_ASC_NODE": 237.9909,
        "ARG_OF_PERICENTER": 0.9113,
        "MEAN_ANOMALY": 359.1915,
        "EPHEMERIS_TYPE": 0,
        "CLASSIFICATION_TYPE": "U",
        "NORAD_CAT_ID": 66377,
        "ELEMENT_SET_NO": 999,
        "REV_AT_EPOCH": 326,
        "BSTAR": 0.00094232,
        "MEAN_MOTION_DOT": 0.00042477,
        "MEAN_MOTION_DDOT": 0,
        "norad_id": 66377,
        "name": "CZ-11 DEB",
        "group": "last-30-days",
        "longitude_deg": NaN,
        "latitude_deg": NaN,
        "alt_km": NaN,
        "orbit_class": "HEO",
        "timestamp": "2025-11-30T09:33:02.498453+00:00"
      },
      "geometry": {
        "type": "Point",
        "coordinates": [
          NaN,
          NaN
        ]
      }
    },
    {
      "type": "Feature",
      "properties": {
        "OBJECT_NAME": "SHIYAN-32 03",
        "OBJECT_ID": "2025-255D",
        "EPOCH": "2025-11-30T01:10:07.678272",
        "MEAN_MOTION": 15.42476268,
        "ECCENTRICITY": 0.001537,
        "INCLINATION": 52.9971,
        "RA_OF_ASC_NODE": 238.3278,
        "ARG_OF_PERICENTER": 3.9387,
        "MEAN_ANOMALY": 356.1736,
        "EPHEMERIS_TYPE": 0,
        "CLASSIFICATION_TYPE": "U",
        "NORAD_CAT_ID": 66379,
        "ELEMENT_SET_NO": 999,
        "REV_AT_EPOCH": 327,
        "BSTAR": 0.00051189,
        "MEAN_MOTION_DOT": 0.00022252,
        "MEAN_MOTION_DDOT": 0,
        "norad_id": 66379,
        "name": "SHIYAN-32 03",
        "group": "last-30-days",
        "longitude_deg": NaN,
        "latitude_deg": NaN,
        "alt_km": NaN,
        "orbit_class": "HEO",
        "timestamp": "2025-11-30T09:33:02.498465+00:00"
      },
      "geometry": {
        "type": "Point",
        "coordinates": [
          NaN,
          NaN
        ]
      }
    },
    {
      "type": "Feature",
      "properties": {
        "OBJECT_NAME": "ZK-1A R/B",
        "OBJECT_ID": "2025-256C",
        "EPOCH": "2025-11-20T17:22:35.449824",
        "MEAN_MOTION": 15.012361,
        "ECCENTRICITY": 0.02323532,
        "INCLINATION": 98.3243,
        "RA_OF_ASC_NODE": 30.9055,
        "ARG_OF_PERICENTER": 318.4537,
        "MEAN_ANOMALY": 39.9225,
        "EPHEMERIS_TYPE": 0,
        "CLASSIFICATION_TYPE": "U",
        "NORAD_CAT_ID": 66411,
        "ELEMENT_SET_NO": 999,
        "REV_AT_EPOCH": 174,
        "BSTAR": 0.00048987823,
        "MEAN_MOTION_DOT": 0.00011214,
        "MEAN_MOTION_DDOT": 0,
        "norad_id": 66411,
        "name": "ZK-1A R/B",
        "group": "last-30-days",
        "longitude_deg": NaN,
        "latitude_deg": NaN,
        "alt_km": NaN,
        "orbit_class": "HEO",
        "timestamp": "2025-11-30T09:33:02.498684+00:00"
      },
      "geometry": {
        "type": "Point",
        "coordinates": [
          NaN,
          NaN
        ]
      }
    },
    {
      "type": "Feature",
      "properties": {
        "OBJECT_NAME": "CZ-12 R/B",
        "OBJECT_ID": "2025-258K",
        "EPOCH": "2025-11-29T06:41:27.995136",
        "MEAN_MOTION": 14.42314254,
        "ECCENTRICITY": 0.00646049,
        "INCLINATION": 49.9957,
        "RA_OF_ASC_NODE": 316.3592,
        "ARG_OF_PERICENTER": 201.0382,
        "MEAN_ANOMALY": 158.7879,
        "EPHEMERIS_TYPE": 0,
        "CLASSIFICATION_TYPE": "U",
        "NORAD_CAT_ID": 66421,
        "ELEMENT_SET_NO": 999,
        "REV_AT_EPOCH": 277,
        "BSTAR": 2.4339908e-05,
        "MEAN_MOTION_DOT": -8.8e-07,
        "MEAN_MOTION_DDOT": 0,
        "norad_id": 66421,
        "name": "CZ-12 R/B",
        "group": "last-30-days",
        "longitude_deg": NaN,
        "latitude_deg": NaN,
        "alt_km": NaN,
        "orbit_class": "HEO",
        "timestamp": "2025-11-30T09:33:02.498750+00:00"
      },
      "geometry": {
        "type": "Point",
        "coordinates": [
          NaN,
          NaN
        ]
      }
    },
    {
      "type": "Feature",
      "properties": {
        "OBJECT_NAME": "ATLAS 5 CENTAUR R/B",
        "OBJECT_ID": "2025-261B",
        "EPOCH": "2025-11-26T18:27:12.771648",
        "MEAN_MOTION": 2.28258333,
        "ECCENTRICITY": 0.23299319,
        "INCLINATION": 6.1673,
        "RA_OF_ASC_NODE": 293.2138,
        "ARG_OF_PERICENTER": 183.2713,
        "MEAN_ANOMALY": 340.9993,
        "EPHEMERIS_TYPE": 0,
        "CLASSIFICATION_TYPE": "U",
        "NORAD_CAT_ID": 66455,
        "ELEMENT_SET_NO": 999,
        "REV_AT_EPOCH": 28,
        "BSTAR": 0,
        "MEAN_MOTION_DOT": -5.2e-07,
        "MEAN_MOTION_DDOT": 0,
        "norad_id": 66455,
        "name": "ATLAS 5 CENTAUR R/B",
        "group": "last-30-days",
        "longitude_deg": NaN,
        "latitude_deg": NaN,
        "alt_km": NaN,
        "orbit_class": "HEO",
        "timestamp": "2025-11-30T09:33:02.498963+00:00"
      },
      "geometry": {
        "type": "Point",
        "coordinates": [
          NaN,
          NaN
        ]
      }
    }
  ]
}